OBJECT_NAME,OBJECT_ID,EPOCH,MEAN_MOTION,ECCENTRICITY,INCLINATION,RA_OF_ASC_NODE,ARG_OF_PERICENTER,MEAN_ANOMALY,EPHEMERIS_TYPE,CLASSIFICATION_TYPE,NORAD_CAT_ID,ELEMENT_SET_NO,REV_AT_EPOCH,BSTAR,MEAN_MOTION_DOT,MEAN_MOTION_DDOT
LINGQIAO VIDEO A,2015-057B,2026-05-20T04:28:14.304288,14.77348193,.0017032,97.6617,136.3720,6.1803,353.9615,0,U,40959,999,57127,.37792E-4,.221E-5,0
LINGQIAO VIDEO B,2015-057C,2026-05-20T05:35:03.983136,14.77455631,.0017172,97.6583,137.5871,6.1451,353.9968,0,U,40960,999,57132,.13366E-3,.906E-5,0
JILIN-1,2015-057D,2026-05-20T04:34:57.063072,14.78107514,.0016921,97.6510,140.9495,0.3429,359.7791,0,U,40961,999,57147,.74592E-4,.492E-5,0
FOX-1A (AO-85),2015-058D,2026-05-19T21:52:16.434912,14.90787273,.012925,64.7763,6.8455,67.6906,293.7849,0,U,40967,999,10935,.19897E-3,.2122E-4,0
SINOD-D 1,2015-058E,2026-05-19T23:56:50.688960,14.95666796,.0117765,64.7759,347.1758,64.4013,296.9216,0,U,40968,999,11244,.24574E-3,.2968E-4,0
ELEKTRO-L 2,2015-074A,2026-05-20T03:53:52.209312,1.00271606,.0001521,6.6248,70.8567,255.9326,314.9986,0,U,41105,999,3822,0,-.122E-5,0
DAMPE,2015-078A,2026-05-20T04:33:48.832992,15.30707192,.0012133,97.4560,145.5214,166.8677,193.2882,0,U,41173,999,58026,.38298E-4,.1061E-4,0
ORBCOMM FM114,2015-081A,2026-05-20T04:08:24.922752,14.58821888,.00014,47.0032,134.4502,48.9615,311.1392,0,U,41179,999,55366,.63423E-4,.128E-5,0
ORBCOMM FM110,2015-081D,2026-05-20T03:52:07.172832,14.58830149,.000396,47.0004,133.9522,299.7747,60.2744,0,U,41182,999,55353,.1262E-3,.425E-5,0
ORBCOMM FM112,2015-081F,2026-05-19T23:52:53.590080,14.58855977,.0002455,47.0004,43.5532,69.1715,290.9434,0,U,41184,999,55483,.11124E-3,.354E-5,0
ORBCOMM FM113,2015-081G,2026-05-20T02:35:21.613920,14.58823028,.0001043,47.0018,43.3833,61.1355,298.9635,0,U,41185,999,55483,.7852E-4,.2E-5,0
ORBCOMM FM108,2015-081J,2026-05-20T03:20:05.496000,14.58826331,.0001953,47.0057,314.8045,70.9540,289.1558,0,U,41187,999,55598,.11024E-3,.349E-5,0
ORBCOMM FM117,2015-081K,2026-05-20T04:08:58.279200,14.58823906,.000241,47.0019,313.2861,79.1203,280.9954,0,U,41188,999,55603,.10349E-3,.317E-5,0
ORBCOMM FM116,2015-081L,2026-05-20T02:02:30.215616,14.58833664,.0002173,47.0033,43.4891,298.0132,62.0533,0,U,41189,999,55483,.10703E-3,.334E-5,0
HORYU-4,2016-012D,2026-05-20T01:45:16.470720,15.80017003,.0004402,30.9886,282.7816,84.7285,275.3874,0,U,41340,999,56634,.85162E-3,.168826E-2,0
ZIYUAN 3-02 (ZY 3-02),2016-033A,2026-05-20T02:30:02.509344,15.21500562,.0013219,97.3835,216.4170,40.0419,320.1789,0,U,41556,999,55371,.17528E-3,.3883E-4,0
CARTOSAT-2C,2016-040A,2026-05-20T03:13:30.933984,15.19236500,.000872,97.4493,200.4938,224.8609,135.1921,0,U,41599,999,54945,.41635E-4,.809E-5,0
LAPAN-A3,2016-040E,2026-05-20T04:31:49.321056,15.32909784,.001217,97.1490,137.2602,112.2808,247.9726,0,U,41603,999,55052,.71983E-4,.2218E-4,0
GAOFEN-3,2016-049A,2026-05-20T04:39:19.006272,14.42211578,.0000958,98.4014,148.4026,87.9126,272.2173,0,U,41727,999,51461,.48348E-4,.116E-5,0
CAS-2T & KS-1Q,2016-066G,2026-05-20T04:31:42.036672,14.44600755,.034142,98.3826,216.2426,214.3497,143.5193,0,U,41847,999,50075,.11089E-3,.721E-5,0
YUNHAI-1 01,2016-068A,2026-05-20T03:52:07.869216,14.32717863,.0006533,98.5836,151.4289,111.2817,248.9065,0,U,41857,999,49781,.91975E-4,.206E-5,0
RESOURCESAT-2A,2016-074A,2026-05-20T04:47:06.392256,14.21605926,.0002885,98.7529,213.9308,137.6370,222.5030,0,U,41877,999,49032,.15225E-4,-.11E-6,0
TANSAT,2016-081A,2026-05-20T03:34:04.135008,14.59923651,.0021462,98.5363,139.5790,38.7482,321.5252,0,U,41898,999,50053,.27976E-4,.84E-6,0
JILIN-1 03,2017-002B,2026-05-20T04:08:04.146144,15.40836405,.0003574,97.1956,147.6674,272.2795,87.8042,0,U,41914,999,51754,.23255E-3,.9457E-4,0
CARTOSAT-2D,2017-008A,2026-05-20T04:00:17.464320,15.19260420,.0004048,97.4118,199.9915,353.3820,6.7360,0,U,41948,999,51332,.18708E-3,.3877E-4,0
CARTOSAT-2E,2017-036C,2026-05-20T04:25:27.445152,15.19235275,.0004095,97.4281,200.4446,57.0225,303.1403,0,U,42767,999,49389,.13596E-3,.2797E-4,0
