LINGQIAO VIDEO A        
1 40959U 15057B   26140.18627667  .00000221  00000+0  37792-4 0  9997
2 40959  97.6617 136.3720 0017032   6.1803 353.9615 14.77348193571279
LINGQIAO VIDEO B        
1 40960U 15057C   26140.23268499  .00000906  00000+0  13366-3 0  9999
2 40960  97.6583 137.5871 0017172   6.1451 353.9968 14.77455631571320
JILIN-1                 
1 40961U 15057D   26140.19093823  .00000492  00000+0  74592-4 0  9991
2 40961  97.6510 140.9495 0016921   0.3429 359.7791 14.78107514571472
FOX-1A (AO-85)          
1 40967U 15058D   26139.91130133  .00002122  00000+0  19897-3 0  9990
2 40967  64.7763   6.8455 0129250  67.6906 293.7849 14.90787273109350
SINOD-D 1               
1 40968U 15058E   26139.99780890  .00002968  00000+0  24574-3 0  9996
2 40968  64.7759 347.1758 0117765  64.4013 296.9216 14.95666796112443
ELEKTRO-L 2             
1 41105U 15074A   26140.16240983 -.00000122  00000+0  00000+0 0  9998
2 41105   6.6248  70.8567 0001521 255.9326 314.9986  1.00271606 38221
DAMPE                   
1 41173U 15078A   26140.19014853  .00001061  00000+0  38298-4 0  9992
2 41173  97.4560 145.5214 0012133 166.8677 193.2882 15.30707192580261
ORBCOMM FM114           
1 41179U 15081A   26140.17251068  .00000128  00000+0  63423-4 0  9992
2 41179  47.0032 134.4502 0001400  48.9615 311.1392 14.58821888553665
ORBCOMM FM110           
1 41182U 15081D   26140.16119413  .00000425  00000+0  12620-3 0  9994
2 41182  47.0004 133.9522 0003960 299.7747  60.2744 14.58830149553538
ORBCOMM FM112           
1 41184U 15081F   26139.99506470  .00000354  00000+0  11124-3 0  9997
2 41184  47.0004  43.5532 0002455  69.1715 290.9434 14.58855977554837
ORBCOMM FM113           
1 41185U 15081G   26140.10788905  .00000200  00000+0  78520-4 0  9992
2 41185  47.0018  43.3833 0001043  61.1355 298.9635 14.58823028554832
ORBCOMM FM108           
1 41187U 15081J   26140.13895250  .00000349  00000+0  11024-3 0  9998
2 41187  47.0057 314.8045 0001953  70.9540 289.1558 14.58826331555985
ORBCOMM FM117           
1 41188U 15081K   26140.17289675  .00000317  00000+0  10349-3 0  9995
2 41188  47.0019 313.2861 0002410  79.1203 280.9954 14.58823906556030
ORBCOMM FM116           
1 41189U 15081L   26140.08507194  .00000334  00000+0  10703-3 0  9998
2 41189  47.0033  43.4891 0002173 298.0132  62.0533 14.58833664554831
HORYU-4                 
1 41340U 16012D   26140.07310730  .00168826  00000+0  85162-3 0  9991
2 41340  30.9886 282.7816 0004402  84.7285 275.3874 15.80017003566341
ZIYUAN 3-02 (ZY 3-02)   
1 41556U 16033A   26140.10419571  .00003883  00000+0  17528-3 0  9992
2 41556  97.3835 216.4170 0013219  40.0419 320.1789 15.21500562553711
CARTOSAT-2C             
1 41599U 16040A   26140.13438581  .00000809  00000+0  41635-4 0  9994
2 41599  97.4493 200.4938 0008720 224.8609 135.1921 15.19236500549451
LAPAN-A3                
1 41603U 16040E   26140.18876529  .00002218  00000+0  71983-4 0  9998
2 41603  97.1490 137.2602 0012170 112.2808 247.9726 15.32909784550522
GAOFEN-3                
1 41727U 16049A   26140.19396998  .00000116  00000+0  48348-4 0  9996
2 41727  98.4014 148.4026 0000958  87.9126 272.2173 14.42211578514615
CAS-2T & KS-1Q          
1 41847U 16066G   26140.18868098  .00000721  00000+0  11089-3 0  9995
2 41847  98.3826 216.2426 0341420 214.3497 143.5193 14.44600755500758
YUNHAI-1 01             
1 41857U 16068A   26140.16120219  .00000206  00000+0  91975-4 0  9993
2 41857  98.5836 151.4289 0006533 111.2817 248.9065 14.32717863497819
RESOURCESAT-2A          
1 41877U 16074A   26140.19937954 -.00000011  00000+0  15225-4 0  9996
2 41877  98.7529 213.9308 0002885 137.6370 222.5030 14.21605926490323
TANSAT                  
1 41898U 16081A   26140.14865897  .00000084  00000+0  27976-4 0  9993
2 41898  98.5363 139.5790 0021462  38.7482 321.5252 14.59923651500535
JILIN-1 03              
1 41914U 17002B   26140.17227021  .00009457  00000+0  23255-3 0  9998
2 41914  97.1956 147.6674 0003574 272.2795  87.8042 15.40836405517543
CARTOSAT-2D             
1 41948U 17008A   26140.16686880  .00003877  00000+0  18708-3 0  9999
2 41948  97.4118 199.9915 0004048 353.3820   6.7360 15.19260420513327
CARTOSAT-2E             
1 42767U 17036C   26140.18434543  .00002797  00000+0  13596-3 0  9999
2 42767  97.4281 200.4446 0004095  57.0225 303.1403 15.19235275493895
